[{"OBJECT_NAME":"AMAZONAS 5","OBJECT_ID":"2017-053A","EPOCH":"2026-03-04T03:36:38.720160","MEAN_MOTION":1.00267618,"ECCENTRICITY":0.00054213,"INCLINATION":0.0068,"RA_OF_ASC_NODE":291.1162,"ARG_OF_PERICENTER":42.1232,"MEAN_ANOMALY":181.8425,"EPHEMERIS_TYPE":0,"CLASSIFICATION_TYPE":"U","NORAD_CAT_ID":42934,"ELEMENT_SET_NO":999,"REV_AT_EPOCH":3099,"BSTAR":0,"MEAN_MOTION_DOT":0,"MEAN_MOTION_DDOT":0},{"OBJECT_NAME":"ASIASAT 9","OBJECT_ID":"2017-057A","EPOCH":"2026-03-04T19:35:38.784768","MEAN_MOTION":1.00272447,"ECCENTRICITY":0.00023,"INCLINATION":0.012,"RA_OF_ASC_NODE":140.2376,"ARG_OF_PERICENTER":202.3089,"MEAN_ANOMALY":236.026,"EPHEMERIS_TYPE":0,"CLASSIFICATION_TYPE":"U","NORAD_CAT_ID":42942,"ELEMENT_SET_NO":999,"REV_AT_EPOCH":3081,"BSTAR":0,"MEAN_MOTION_DOT":-3.7e-6,"MEAN_MOTION_DDOT":0},{"OBJECT_NAME":"INTELSAT 37E (IS-37E)","OBJECT_ID":"2017-059A","EPOCH":"2026-03-04T10:44:38.580000","MEAN_MOTION":1.00269285,"ECCENTRICITY":0.0002157,"INCLINATION":0.0261,"RA_OF_ASC_NODE":148.6626,"ARG_OF_PERICENTER":199.4105,"MEAN_ANOMALY":317.3002,"EPHEMERIS_TYPE":0,"CLASSIFICATION_TYPE":"U","NORAD_CAT_ID":42950,"ELEMENT_SET_NO":999,"REV_AT_EPOCH":3101,"BSTAR":0,"MEAN_MOTION_DOT":0,"MEAN_MOTION_DDOT":0},{"OBJECT_NAME":"BSAT-4A","OBJECT_ID":"2017-059B","EPOCH":"2026-03-04T20:18:28.184256","MEAN_MOTION":1.00269044,"ECCENTRICITY":0.0004218,"INCLINATION":0.0147,"RA_OF_ASC_NODE":356.0569,"ARG_OF_PERICENTER":30.4577,"MEAN_ANOMALY":190.5634,"EPHEMERIS_TYPE":0,"CLASSIFICATION_TYPE":"U","NORAD_CAT_ID":42951,"ELEMENT_SET_NO":999,"REV_AT_EPOCH":3075,"BSTAR":0,"MEAN_MOTION_DOT":0,"MEAN_MOTION_DDOT":0},{"OBJECT_NAME":"QZS-4 (MICHIBIKI-4)","OBJECT_ID":"2017-062A","EPOCH":"2026-03-04T11:59:33.378432","MEAN_MOTION":1.00280862,"ECCENTRICITY":0.07486483,"INCLINATION":40.1729,"RA_OF_ASC_NODE":344.8221,"ARG_OF_PERICENTER":269.8938,"MEAN_ANOMALY":227.8704,"EPHEMERIS_TYPE":0,"CLASSIFICATION_TYPE":"U","NORAD_CAT_ID":42965,"ELEMENT_SET_NO":999,"REV_AT_EPOCH":3075,"BSTAR":0,"MEAN_MOTION_DOT":-3.43e-6,"MEAN_MOTION_DDOT":0},{"OBJECT_NAME":"SES-11 (ECHOSTAR 105)","OBJECT_ID":"2017-063A","EPOCH":"2026-03-04T08:33:38.625984","MEAN_MOTION":1.00272189,"ECCENTRICITY":0.00029104,"INCLINATION":0.0365,"RA_OF_ASC_NODE":70.921,"ARG_OF_PERICENTER":269.2101,"MEAN_ANOMALY":205.4324,"EPHEMERIS_TYPE":0,"CLASSIFICATION_TYPE":"U","NORAD_CAT_ID":42967,"ELEMENT_SET_NO":999,"REV_AT_EPOCH":3067,"BSTAR":0,"MEAN_MOTION_DOT":-1.01e-6,"MEAN_MOTION_DDOT":0},{"OBJECT_NAME":"KOREASAT 5A","OBJECT_ID":"2017-067A","EPOCH":"2026-03-04T18:12:38.729376","MEAN_MOTION":1.0026826,"ECCENTRICITY":0.0001936,"INCLINATION":0.0197,"RA_OF_ASC_NODE":140.9064,"ARG_OF_PERICENTER":236.4477,"MEAN_ANOMALY":171.4843,"EPHEMERIS_TYPE":0,"CLASSIFICATION_TYPE":"U","NORAD_CAT_ID":42984,"ELEMENT_SET_NO":999,"REV_AT_EPOCH":3048,"BSTAR":0,"MEAN_MOTION_DOT":0,"MEAN_MOTION_DDOT":0},{"OBJECT_NAME":"ALCOMSAT 1","OBJECT_ID":"2017-078A","EPOCH":"2026-03-04T10:44:38.580000","MEAN_MOTION":1.00272385,"ECCENTRICITY":0.0002923,"INCLINATION":0.0618,"RA_OF_ASC_NODE":268.314,"ARG_OF_PERICENTER":60.3141,"MEAN_ANOMALY":329.9319,"EPHEMERIS_TYPE":0,"CLASSIFICATION_TYPE":"U","NORAD_CAT_ID":43039,"ELEMENT_SET_NO":999,"REV_AT_EPOCH":3024,"BSTAR":0,"MEAN_MOTION_DOT":-1.98e-6,"MEAN_MOTION_DDOT":0},{"OBJECT_NAME":"SBIRS GEO-3 (USA 282)","OBJECT_ID":"2018-009A","EPOCH":"2026-03-04T10:13:38.563392","MEAN_MOTION":1.00272683,"ECCENTRICITY":0.0002352,"INCLINATION":2.1223,"RA_OF_ASC_NODE":6.9146,"ARG_OF_PERICENTER":335.0892,"MEAN_ANOMALY":174.1679,"EPHEMERIS_TYPE":0,"CLASSIFICATION_TYPE":"U","NORAD_CAT_ID":43162,"ELEMENT_SET_NO":999,"REV_AT_EPOCH":2979,"BSTAR":0,"MEAN_MOTION_DOT":1.18e-6,"MEAN_MOTION_DDOT":0},{"OBJECT_NAME":"AL YAH 3","OBJECT_ID":"2018-012A","EPOCH":"2026-03-04T10:44:38.580000","MEAN_MOTION":1.00271836,"ECCENTRICITY":0.0004276,"INCLINATION":1.2814,"RA_OF_ASC_NODE":84.4519,"ARG_OF_PERICENTER":268.4212,"MEAN_ANOMALY":310.3758,"EPHEMERIS_TYPE":0,"CLASSIFICATION_TYPE":"U","NORAD_CAT_ID":43174,"ELEMENT_SET_NO":999,"REV_AT_EPOCH":2979,"BSTAR":0,"MEAN_MOTION_DOT":-1.66e-6,"MEAN_MOTION_DDOT":0},{"OBJECT_NAME":"SES-14","OBJECT_ID":"2018-012B","EPOCH":"2026-03-04T08:14:38.476896","MEAN_MOTION":1.00271323,"ECCENTRICITY":9.734e-5,"INCLINATION":0.0143,"RA_OF_ASC_NODE":70.4742,"ARG_OF_PERICENTER":272.4657,"MEAN_ANOMALY":255.304,"EPHEMERIS_TYPE":0,"CLASSIFICATION_TYPE":"U","NORAD_CAT_ID":43175,"ELEMENT_SET_NO":999,"REV_AT_EPOCH":597,"BSTAR":0,"MEAN_MOTION_DOT":-2.9e-6,"MEAN_MOTION_DDOT":0},{"OBJECT_NAME":"GOES 17","OBJECT_ID":"2018-022A","EPOCH":"2026-03-04T08:25:38.679168","MEAN_MOTION":1.00270359,"ECCENTRICITY":0.0002253,"INCLINATION":0.668,"RA_OF_ASC_NODE":87.5564,"ARG_OF_PERICENTER":221.55,"MEAN_ANOMALY":249.8945,"EPHEMERIS_TYPE":0,"CLASSIFICATION_TYPE":"U","NORAD_CAT_ID":43226,"ELEMENT_SET_NO":999,"REV_AT_EPOCH":2937,"BSTAR":0,"MEAN_MOTION_DOT":-1.94e-6,"MEAN_MOTION_DDOT":0},{"OBJECT_NAME":"HISPASAT 30W-6","OBJECT_ID":"2018-023A","EPOCH":"2026-03-04T10:52:38.525952","MEAN_MOTION":1.00270496,"ECCENTRICITY":0.0005343,"INCLINATION":0.0478,"RA_OF_ASC_NODE":45.4974,"ARG_OF_PERICENTER":315.0454,"MEAN_ANOMALY":294.7873,"EPHEMERIS_TYPE":0,"CLASSIFICATION_TYPE":"U","NORAD_CAT_ID":43228,"ELEMENT_SET_NO":999,"REV_AT_EPOCH":2935,"BSTAR":0,"MEAN_MOTION_DOT":-2.28e-6,"MEAN_MOTION_DDOT":0},{"OBJECT_NAME":"SUPERBIRD-B3","OBJECT_ID":"2018-033A","EPOCH":"2026-03-04T15:24:38.667744","MEAN_MOTION":1.0026933,"ECCENTRICITY":0.0001463,"INCLINATION":0.0224,"RA_OF_ASC_NODE":159.481,"ARG_OF_PERICENTER":207.9746,"MEAN_ANOMALY":188.0887,"EPHEMERIS_TYPE":0,"CLASSIFICATION_TYPE":"U","NORAD_CAT_ID":43271,"ELEMENT_SET_NO":999,"REV_AT_EPOCH":2901,"BSTAR":0,"MEAN_MOTION_DOT":0,"MEAN_MOTION_DDOT":0},{"OBJECT_NAME":"HYLAS 4","OBJECT_ID":"2018-033B","EPOCH":"2026-03-04T10:52:38.525952","MEAN_MOTION":1.0026893,"ECCENTRICITY":0.0001268,"INCLINATION":0.0223,"RA_OF_ASC_NODE":103.4347,"ARG_OF_PERICENTER":265.3737,"MEAN_ANOMALY":282.9818,"EPHEMERIS_TYPE":0,"CLASSIFICATION_TYPE":"U","NORAD_CAT_ID":43272,"ELEMENT_SET_NO":999,"REV_AT_EPOCH":2901,"BSTAR":0,"MEAN_MOTION_DOT":-2.46e-6,"MEAN_MOTION_DDOT":0},{"OBJECT_NAME":"IRNSS-1I","OBJECT_ID":"2018-035A","EPOCH":"2026-03-04T02:19:09.760800","MEAN_MOTION":1.00277479,"ECCENTRICITY":0.00190675,"INCLINATION":28.9289,"RA_OF_ASC_NODE":75.819,"ARG_OF_PERICENTER":190.3573,"MEAN_ANOMALY":345.5673,"EPHEMERIS_TYPE":0,"CLASSIFICATION_TYPE":"U","NORAD_CAT_ID":43286,"ELEMENT_SET_NO":999,"REV_AT_EPOCH":2902,"BSTAR":0,"MEAN_MOTION_DOT":8.5e-7,"MEAN_MOTION_DDOT":0},{"OBJECT_NAME":"USA 283","OBJECT_ID":"2018-036A","EPOCH":"2026-03-03T19:50:47.883840","MEAN_MOTION":1.00271212,"ECCENTRICITY":7.78e-5,"INCLINATION":0.0172,"RA_OF_ASC_NODE":128.2274,"ARG_OF_PERICENTER":251.2663,"MEAN_ANOMALY":213.8636,"EPHEMERIS_TYPE":0,"CLASSIFICATION_TYPE":"U","NORAD_CAT_ID":43339,"ELEMENT_SET_NO":999,"REV_AT_EPOCH":2423,"BSTAR":0,"MEAN_MOTION_DOT":-3.31e-6,"MEAN_MOTION_DDOT":0},{"OBJECT_NAME":"COSMOS 2526","OBJECT_ID":"2018-037A","EPOCH":"2026-03-04T19:13:51.658176","MEAN_MOTION":1.00283068,"ECCENTRICITY":4.86e-5,"INCLINATION":0.0249,"RA_OF_ASC_NODE":108.5448,"ARG_OF_PERICENTER":162.7087,"MEAN_ANOMALY":307.8347,"EPHEMERIS_TYPE":0,"CLASSIFICATION_TYPE":"U","NORAD_CAT_ID":43432,"ELEMENT_SET_NO":999,"REV_AT_EPOCH":2891,"BSTAR":0,"MEAN_MOTION_DOT":-3.54e-6,"MEAN_MOTION_DDOT":0},{"OBJECT_NAME":"APSTAR-6C","OBJECT_ID":"2018-041A","EPOCH":"2026-03-04T21:08:23.496000","MEAN_MOTION":1.00272379,"ECCENTRICITY":0.0003139,"INCLINATION":0.0515,"RA_OF_ASC_NODE":348.1608,"ARG_OF_PERICENTER":353.3393,"MEAN_ANOMALY":272.2215,"EPHEMERIS_TYPE":0,"CLASSIFICATION_TYPE":"U","NORAD_CAT_ID":43450,"ELEMENT_SET_NO":999,"REV_AT_EPOCH":2876,"BSTAR":0,"MEAN_MOTION_DOT":-3.28e-6,"MEAN_MOTION_DDOT":0},{"OBJECT_NAME":"BANGABANDHUSAT-1","OBJECT_ID":"2018-044A","EPOCH":"2026-03-04T17:48:38.687616","MEAN_MOTION":1.00269981,"ECCENTRICITY":0.0002642,"INCLINATION":0.0114,"RA_OF_ASC_NODE":165.5074,"ARG_OF_PERICENTER":189.7982,"MEAN_ANOMALY":193.4151,"EPHEMERIS_TYPE":0,"CLASSIFICATION_TYPE":"U","NORAD_CAT_ID":43463,"ELEMENT_SET_NO":999,"REV_AT_EPOCH":2866,"BSTAR":0,"MEAN_MOTION_DOT":-3.73e-6,"MEAN_MOTION_DDOT":0},{"OBJECT_NAME":"SES-12","OBJECT_ID":"2018-049A","EPOCH":"2026-03-04T12:25:34.451040","MEAN_MOTION":1.00269264,"ECCENTRICITY":0.00020644,"INCLINATION":0.0189,"RA_OF_ASC_NODE":119.5295,"ARG_OF_PERICENTER":184.8773,"MEAN_ANOMALY":139.2675,"EPHEMERIS_TYPE":0,"CLASSIFICATION_TYPE":"U","NORAD_CAT_ID":43488,"ELEMENT_SET_NO":999,"REV_AT_EPOCH":2836,"BSTAR":0,"MEAN_MOTION_DOT":0,"MEAN_MOTION_DDOT":0},{"OBJECT_NAME":"FENGYUN 2H","OBJECT_ID":"2018-050A","EPOCH":"2026-03-04T16:15:27.570816","MEAN_MOTION":1.00272622,"ECCENTRICITY":0.0001895,"INCLINATION":2.7614,"RA_OF_ASC_NODE":80.3546,"ARG_OF_PERICENTER":174.936,"MEAN_ANOMALY":230.062,"EPHEMERIS_TYPE":0,"CLASSIFICATION_TYPE":"U","NORAD_CAT_ID":43491,"ELEMENT_SET_NO":999,"REV_AT_EPOCH":2839,"BSTAR":0,"MEAN_MOTION_DOT":-1.36e-6,"MEAN_MOTION_DDOT":0},{"OBJECT_NAME":"BEIDOU-2 IGSO-7","OBJECT_ID":"2018-057A","EPOCH":"2026-02-25T17:45:22.620960","MEAN_MOTION":1.00284731,"ECCENTRICITY":0.00999628,"INCLINATION":55.1859,"RA_OF_ASC_NODE":164.0342,"ARG_OF_PERICENTER":236.5988,"MEAN_ANOMALY":133.5173,"EPHEMERIS_TYPE":0,"CLASSIFICATION_TYPE":"U","NORAD_CAT_ID":43539,"ELEMENT_SET_NO":999,"REV_AT_EPOCH":2801,"BSTAR":0,"MEAN_MOTION_DOT":-1.61e-6,"MEAN_MOTION_DDOT":0},{"OBJECT_NAME":"TELSTAR 19V","OBJECT_ID":"2018-059A","EPOCH":"2026-03-04T03:28:03.154944","MEAN_MOTION":1.0027202,"ECCENTRICITY":5.932e-5,"INCLINATION":0.0201,"RA_OF_ASC_NODE":169.6505,"ARG_OF_PERICENTER":253.965,"MEAN_ANOMALY":87.2796,"EPHEMERIS_TYPE":0,"CLASSIFICATION_TYPE":"U","NORAD_CAT_ID":43562,"ELEMENT_SET_NO":999,"REV_AT_EPOCH":2809,"BSTAR":0,"MEAN_MOTION_DOT":-2.92e-6,"MEAN_MOTION_DDOT":0}]
